SatCatId,ObjectName,LaunchYear,OrbitalPeriod,LaunchMass,StatusCode,Inclination,Status,UcsData,OrbitClassEstimated,LaunchSiteCountry,Owner,UseType,Purpose,LaunchVehicleClass,TLE1,TLE2,MeanMotion,Eccentricity,OrbitClass
52747,NUSAT-28 (ALICE LEE),2022,94.03,42.0,+,97.48,Active,1,LEO,USA,Argentina,Commercial,Earth Observation,Falcon,1 52747U 22057R   24352.45231852  .00031214  00000+0  10265-2 0  9993,2 52747  97.4779 112.4054 0008479 150.1391 210.0336 15.31440290142691,15.3144029,0.0008479,LEO
52749,CARCARA 1 (ICEYE-X18),2022,92.69,80.0,+,97.57,Active,1,LEO,USA,Brazil,Commercial,Earth Observation,Falcon,1 52749U 22057T   24352.45152497  .00127212  00000+0  19507-2 0  9994,2 52749  97.5726 120.2467 0006465 203.0698 157.0265 15.53844247142473,15.53844247,0.0006465,LEO
52752,NUSAT-31 (RUBY PAYNE-S),2022,93.41,42.0,+,97.6,Active,1,LEO,USA,Argentina,Commercial,Earth Observation,Falcon,1 52752U 22057W   24352.44379870  .00046208  00000+0  10908-2 0  9994,2 52752  97.5987 122.4008 0007161 204.6860 155.4045 15.41705770142543,15.4170577,0.0007161,LEO
52754,HAWK-5C,2022,94.1,-1.0,+,97.6,Active,0,LEO,USA,USA,Unknown,Unknown,Unknown,1 52754U 22057Y   24352.07000119  .00015790  00000+0  53944-3 0  9992,2 52754  97.5970 117.2046 0006674 223.8363 136.2348 15.30367292142117,15.30367292,0.0006674,LEO
52756,HAWK-5B,2022,94.1,-1.0,+,97.6,Active,0,LEO,USA,USA,Unknown,Unknown,Unknown,1 52756U 22057AA  24352.06984539  .00015990  00000+0  54620-3 0  9994,2 52756  97.5959 115.6376 0007171 219.3564 140.7156 15.30365488142112,15.30365488,0.0007171,LEO
52757,HAWK-5A,2022,94.1,-1.0,+,97.6,Active,0,LEO,USA,USA,Unknown,Unknown,Unknown,1 52757U 22057AB  24352.06960951  .00016039  00000+0  54781-3 0  9990,2 52757  97.5967 116.4160 0007484 221.3505 138.7169 15.30366964142118,15.30366964,0.0007484,LEO
52758,CARCARA 2 (ICEYE-X19),2022,92.22,80.0,+,97.57,Active,1,LEO,USA,Brazil,Commercial,Earth Observation,Falcon,1 52758U 22057AC  24352.43575766  .00093384  00000+0  10727-2 0  9997,2 52758  97.5711 123.8544 0005614 170.3394 189.7972 15.61719571142686,15.61719571,0.0005614,LEO
52759,ICEYE-X20,2022,92.75,80.0,+,97.59,Active,1,LEO,USA,Finland,Commercial,Earth Observation,Falcon,1 52759U 22057AD  24352.43388735  .00046197  00000+0  74610-3 0  9998,2 52759  97.5858 128.7466 0006435 177.2804 182.8484 15.52723828142985,15.52723828,0.0006435,LEO
52760,VIGORIDE-3,2022,94.7,-1.0,+,97.59,Active,0,LEO,USA,USA,Unknown,Unknown,Unknown,1 52760U 22057AE  24351.77314297  .00006481  00000+0  29892-3 0  9992,2 52760  97.5945 111.7225 0009085 232.5915 127.4494 15.20563182141795,15.20563182,0.0009085,LEO
52761,ION SCV-006,2022,94.13,-1.0,+,97.55,Active,0,LEO,USA,Italy,Unknown,Unknown,Unknown,1 52761U 22057AF  24351.91165034  .00013203  00000+0  45589-3 0  9993,2 52761  97.5462 112.2304 0023651 272.4193  87.4339 15.29811464142006,15.29811464,0.0023651,LEO
52762,ICEYE-X17,2022,93.48,80.0,+,97.58,Active,1,LEO,USA,USA,Commercial,Earth Observation,Falcon,1 52762U 22057AG  24352.43193358  .00059194  00000+0  14468-2 0  9992,2 52762  97.5798 120.9192 0011796 200.4593 159.6182 15.40544486142482,15.40544486,0.0011796,LEO
52763,SHERPA-AC1,2022,94.4,-1.0,+,97.6,Active,0,LEO,USA,USA,Unknown,Unknown,Unknown,1 52763U 22057AH  24351.92394652  .00010348  00000+0  41205-3 0  9994,2 52763  97.5990 114.4198 0009002 222.1275 137.9272 15.25402133141962,15.25402133,0.0009002,LEO
52764,NUSAT-29 (EDITH CLARKE),2022,93.38,42.0,+,97.46,Active,1,LEO,USA,Argentina,Commercial,Earth Observation,Falcon,1 52764U 22057AJ  24352.43430370  .00049620  00000+0  11527-2 0  9998,2 52764  97.4606 112.6577 0005825 162.1123 198.0330 15.42180017142788,15.42180017,0.0005825,LEO
52765,ARMSAT1 URDANETA,2022,93.19,-1.0,+,97.6,Active,0,LEO,USA,Spain,Unknown,Unknown,Unknown,1 52765U 22057AK  24352.46755754  .00028022  00000+0  58962-3 0  9996,2 52765  97.5965 125.5638 0007782 184.4351 175.6830 15.45235697142721,15.45235697,0.0007782,LEO
52766,VARISAT 1C & CELESTIS-21,2022,92.97,-1.0,+,97.6,Active,0,LEO,USA,USA,Unknown,Unknown,Unknown,1 52766U 22057AL  24352.41666711  .00059863  00000+0  11015-2 0  9990,2 52766  97.5976 124.4406 0007112 198.4010 161.6984 15.48968287142635,15.48968287,0.0007112,LEO
52770,PLATFORM-1,2022,93.54,-1.0,+,97.59,Active,0,LEO,USA,Bulgaria,Unknown,Unknown,Unknown,1 52770U 22057AQ  24352.35726751  .00029065  00000+0  73816-3 0  9998,2 52770  97.5921 121.2946 0008536 196.7381 163.3584 15.39574232142488,15.39574232,0.0008536,LEO
52771,OMNI-L2,2022,97.22,-1.0,+,97.52,Active,0,LEO,USA,USA,Unknown,Unknown,Unknown,1 52771U 22057AR  24351.71275499  .00006321  00000+0  81937-3 0  9999,2 52771  97.5244  78.7003 0005638 321.7681  38.3132 14.81110847139390,14.81110847,0.0005638,LEO
52775,GUARDIAN,2022,93.38,-1.0,+,97.59,Active,0,LEO,USA,Spain,Unknown,Unknown,Unknown,1 52775U 22057AV  24352.42803275  .00042900  00000+0  99727-3 0  9990,2 52775  97.5906 119.9193 0006025 228.0596 132.0137 15.42193564142387,15.42193564,0.0006025,LEO
52785,GEESAT-1 01,2022,96.43,100.0,+,49.99,Active,1,LEO,PRC,China,Commercial,Earth Observation/Navigation,Long March,1 52785U 22058A   24352.43315505  .00007936  00000+0  77130-3 0  9991,2 52785  49.9935 251.0417 0006287 221.0233 139.0237 14.93302945138281,14.93302945,0.0006287,LEO
52786,GEESAT-1 02,2022,96.43,100.0,+,50.0,Active,1,LEO,PRC,China,Commercial,Earth Observation/Navigation,Long March,1 52786U 22058B   24352.46273284  .00008551  00000+0  82891-3 0  9996,2 52786  49.9994 251.0079 0002842 212.5871 147.4896 14.93326551138280,14.93326551,0.0002842,LEO
52787,GEESAT-1 03,2022,96.43,100.0,+,49.99,Active,1,LEO,PRC,China,Commercial,Earth Observation/Navigation,Long March,1 52787U 22058C   24352.35871554  .00008070  00000+0  78392-3 0  9996,2 52787  49.9873 250.7904 0005874 217.1199 142.9338 14.93307857138269,14.93307857,0.0005874,LEO
52788,GEESAT-1 04,2022,96.43,100.0,+,50.0,Active,1,LEO,PRC,China,Commercial,Earth Observation/Navigation,Long March,1 52788U 22058D   24352.44029971  .00008205  00000+0  79607-3 0  9995,2 52788  50.0037 251.2551 0002171 198.3619 161.7245 14.93338158138278,14.93338158,0.0002171,LEO
52789,GEESAT-1 05,2022,96.43,100.0,+,49.99,Active,1,LEO,PRC,China,Commercial,Earth Observation/Navigation,Long March,1 52789U 22058E   24352.45548402  .00008552  00000+0  82902-3 0  9999,2 52789  49.9872 249.8884 0005597 188.1238 171.9614 14.93319666138281,14.93319666,0.0005597,LEO
52790,GEESAT-1 06,2022,96.43,100.0,+,50.01,Active,1,LEO,PRC,China,Commercial,Earth Observation/Navigation,Long March,1 52790U 22058F   24352.33653208  .00008491  00000+0  82341-3 0  9998,2 52790  50.0050 251.4620 0005765 182.6921 177.3991 14.93311257138260,14.93311257,0.0005765,LEO
52791,GEESAT-1 07,2022,96.43,100.0,+,49.99,Active,1,LEO,PRC,China,Commercial,Earth Observation/Navigation,Long March,1 52791U 22058G   24352.41814424  .00008041  00000+0  78138-3 0  9997,2 52791  49.9892 249.7931 0005222 218.5725 141.4844 14.93299754138284,14.93299754,0.0005222,LEO
52792,GEESAT-1 08,2022,96.43,100.0,+,49.99,Active,1,LEO,PRC,China,Commercial,Earth Observation/Navigation,Long March,1 52792U 22058H   24352.31399462  .00008291  00000+0  80414-3 0  9994,2 52792  49.9925 250.2151 0004919 237.2357 122.8112 14.93339134138271,14.93339134,0.0004919,LEO
52793,GEESAT-1 09,2022,96.43,100.0,+,50.0,Active,1,LEO,PRC,China,Commercial,Earth Observation/Navigation,Long March,1 52793U 22058J   24352.34420538  .00008327  00000+0  80798-3 0  9992,2 52793  49.9977 250.8634 0008911 184.2470 175.8398 14.93300912138304,14.93300912,0.0008911,LEO
52817,NILESAT 301,2022,1436.1,3500.0,+,0.04,Active,1,GSO,USA,Egypt,Government,Communications,Falcon,1 52817U 22061A   24352.36507906 -.00000053  00000+0  00000+0 0  9993,2 52817   0.0444   8.6776 0004536 280.1904 282.0404  1.00272140  9245,1.0027214,0.0004536,GEO
52830,STARLINK-4091,2022,95.44,260.0,+,53.22,Active,1,LEO,USA,USA,Commercial,Communications,Falcon,1 52830U 22062A   24352.39780559 -.00001795  00000+0 -94669-4 0  9993,2 52830  53.2167 242.2816 0001207  92.2173 267.8957 15.08847427138768,15.08847427,0.0001207,LEO
52831,STARLINK-4089,2022,95.44,260.0,+,53.22,Active,1,LEO,USA,USA,Commercial,Communications,Falcon,1 52831U 22062B   24352.12546781  .00000079  00000+0  23084-4 0  9997,2 52831  53.2169 243.3129 0001552  89.6874 270.4296 15.08836458138725,15.08836458,0.0001552,LEO
52832,STARLINK-4083,2022,95.44,260.0,+,53.22,Active,1,LEO,USA,USA,Commercial,Communications,Falcon,1 52832U 22062C   24352.12178265 -.00000143  00000+0  90883-5 0  9991,2 52832  53.2170 243.3298 0001542  93.0977 267.0192 15.08844450138703,15.0884445,0.0001542,LEO
52833,STARLINK-4086,2022,95.44,260.0,+,53.22,Active,1,LEO,USA,USA,Commercial,Communications,Falcon,1 52833U 22062D   24351.98561960 -.00003425  00000+0 -19708-3 0  9995,2 52833  53.2168 243.9422 0001595  89.2611 270.8564 15.08857652138192,15.08857652,0.0001595,LEO
52834,STARLINK-4108,2022,95.44,260.0,+,53.22,Active,1,LEO,USA,USA,Commercial,Communications,Falcon,1 52834U 22062E   24351.44836221 -.00002660  00000+0 -14910-3 0  9992,2 52834  53.2169 246.3604 0002506  66.9664 293.1592 15.08829933138118,15.08829933,0.0002506,LEO
52835,STARLINK-4080,2022,95.44,260.0,+,53.22,Active,1,LEO,USA,USA,Commercial,Communications,Falcon,1 52835U 22062F   24352.43826717  .00000499  00000+0  49450-4 0  9996,2 52835  53.2154 241.9089 0001578  94.2269 265.8903 15.08836209138266,15.08836209,0.0001578,LEO
52836,STARLINK-4043,2022,95.44,260.0,+,53.22,Active,1,LEO,USA,USA,Commercial,Communications,Falcon,1 52836U 22062G   24351.93510339  .00000834  00000+0  70476-4 0  9996,2 52836  53.2189 244.4854 0001520  92.4865 267.6301 15.08837586138184,15.08837586,0.000152,LEO
52837,STARLINK-4036,2022,95.44,260.0,+,53.22,Active,1,LEO,USA,USA,Commercial,Communications,Falcon,1 52837U 22062H   24351.69858670  .00001530  00000+0  11420-3 0  9990,2 52837  53.2161 245.2282 0001824  83.2253 276.8947 15.08836234138159,15.08836234,0.0001824,LEO
